{
  "type": "FeatureCollection",
  "features": [
    {
      "type": "Feature",
      "properties": {
        "norad_id": 42988,
        "name": "SKYSAT-C10",
        "group": "resource",
        "lat": 12.475941485676074,
        "lon": -62.045494661224474,
        "alt_km": 469.314897147603,
        "timestamp": "2025-12-11T10:53:15.542487+00:00",
        "meta_object_name": "SKYSAT-C10",
        "meta_object_id": "2017-068B",
        "meta_epoch": "2025-12-11T03:53:23.546112",
        "meta_mean_motion": 15.32006211,
        "meta_eccentricity": 0.0005345,
        "meta_inclination": 97.4257,
        "meta_ra_of_asc_node": 116.0086,
        "meta_arg_of_pericenter": 108.1889,
        "meta_mean_anomaly": 251.9935,
        "meta_ephemeris_type": 0,
        "meta_classification_type": "U",
        "meta_norad_cat_id": 42988,
        "meta_element_set_no": 999,
        "meta_rev_at_epoch": 45355,
        "meta_bstar": 0.00052568,
        "meta_mean_motion_dot": 0.00016189,
        "meta_mean_motion_ddot": 0,
        "tle_line1": "1 42988U 17068B   25345.16207808  .00016189  00000+0  52568-3 0  9997",
        "tle_line2": "2 42988  97.4257 116.0086 0005345 108.1889 251.9935 15.32006211453558"
      },
      "geometry": {
        "type": "Point",
        "coordinates": [
          -62.045494661224474,
          12.475941485676074
        ]
      }
    },
    {
      "type": "Feature",
      "properties": {
        "norad_id": 42989,
        "name": "SKYSAT-C9",
        "group": "resource",
        "lat": -3.8471864523449892,
        "lon": 116.19913962190243,
        "alt_km": 462.24458159122787,
        "timestamp": "2025-12-11T10:53:15.542498+00:00",
        "meta_object_name": "SKYSAT-C9",
        "meta_object_id": "2017-068C",
        "meta_epoch": "2025-12-10T19:16:09.008256",
        "meta_mean_motion": 15.35967716,
        "meta_eccentricity": 0.0010648,
        "meta_inclination": 97.4187,
        "meta_ra_of_asc_node": 115.0414,
        "meta_arg_of_pericenter": 93.9134,
        "meta_mean_anomaly": 266.3328,
        "meta_ephemeris_type": 0,
        "meta_classification_type": "U",
        "meta_norad_cat_id": 42989,
        "meta_element_set_no": 999,
        "meta_rev_at_epoch": 45378,
        "meta_bstar": 0.00053472,
        "meta_mean_motion_dot": 0.00018699,
        "meta_mean_motion_ddot": 0,
        "tle_line1": "1 42989U 17068C   25344.80288204  .00018699  00000+0  53472-3 0  9990",
        "tle_line2": "2 42989  97.4187 115.0414 0010648  93.9134 266.3328 15.35967716453781"
      },
      "geometry": {
        "type": "Point",
        "coordinates": [
          116.19913962190243,
          -3.8471864523449892
        ]
      }
    },
    {
      "type": "Feature",
      "properties": {
        "norad_id": 42990,
        "name": "SKYSAT-C8",
        "group": "resource",
        "lat": -18.320398772606044,
        "lon": 117.9243063554477,
        "alt_km": 471.26524756320396,
        "timestamp": "2025-12-11T10:53:15.542509+00:00",
        "meta_object_name": "SKYSAT-C8",
        "meta_object_id": "2017-068D",
        "meta_epoch": "2025-12-10T19:18:03.305088",
        "meta_mean_motion": 15.32847399,
        "meta_eccentricity": 0.0001709,
        "meta_inclination": 97.4281,
        "meta_ra_of_asc_node": 114.7963,
        "meta_arg_of_pericenter": 358.0878,
        "meta_mean_anomaly": 2.0357,
        "meta_ephemeris_type": 0,
        "meta_classification_type": "U",
        "meta_norad_cat_id": 42990,
        "meta_element_set_no": 999,
        "meta_rev_at_epoch": 45341,
        "meta_bstar": 0.00049354,
        "meta_mean_motion_dot": 0.00015593,
        "meta_mean_motion_ddot": 0,
        "tle_line1": "1 42990U 17068D   25344.80420492  .00015593  00000+0  49354-3 0  9993",
        "tle_line2": "2 42990  97.4281 114.7963 0001709 358.0878   2.0357 15.32847399453419"
      },
      "geometry": {
        "type": "Point",
        "coordinates": [
          117.9243063554477,
          -18.320398772606044
        ]
      }
    },
    {
      "type": "Feature",
      "properties": {
        "norad_id": 42991,
        "name": "SKYSAT-C7",
        "group": "resource",
        "lat": -19.83260465541862,
        "lon": -66.20694202701642,
        "alt_km": 478.28975340497254,
        "timestamp": "2025-12-11T10:53:15.542520+00:00",
        "meta_object_name": "SKYSAT-C7",
        "meta_object_id": "2017-068E",
        "meta_epoch": "2025-12-11T02:10:55.125984",
        "meta_mean_motion": 15.32265917,
        "meta_eccentricity": 0.000772,
        "meta_inclination": 97.4286,
        "meta_ra_of_asc_node": 116.1264,
        "meta_arg_of_pericenter": 62.0604,
        "meta_mean_anomaly": 298.1418,
        "meta_ephemeris_type": 0,
        "meta_classification_type": "U",
        "meta_norad_cat_id": 42991,
        "meta_element_set_no": 999,
        "meta_rev_at_epoch": 45352,
        "meta_bstar": 0.00052822,
        "meta_mean_motion_dot": 0.00016409,
        "meta_mean_motion_ddot": 0,
        "tle_line1": "1 42991U 17068E   25345.09091581  .00016409  00000+0  52822-3 0  9990",
        "tle_line2": "2 42991  97.4286 116.1264 0007720  62.0604 298.1418 15.32265917453521"
      },
      "geometry": {
        "type": "Point",
        "coordinates": [
          -66.20694202701642,
          -19.83260465541862
        ]
      }
    },
    {
      "type": "Feature",
      "properties": {
        "norad_id": 42992,
        "name": "SKYSAT-C6",
        "group": "resource",
        "lat": -39.13827790172242,
        "lon": 123.02788329117521,
        "alt_km": 480.0909494026755,
        "timestamp": "2025-12-11T10:53:15.542531+00:00",
        "meta_object_name": "SKYSAT-C6",
        "meta_object_id": "2017-068F",
        "meta_epoch": "2025-12-10T19:22:41.837088",
        "meta_mean_motion": 15.3142184,
        "meta_eccentricity": 0.00052036,
        "meta_inclination": 97.432,
        "meta_ra_of_asc_node": 116.2821,
        "meta_arg_of_pericenter": 87.635,
        "meta_mean_anomaly": 272.5487,
        "meta_ephemeris_type": 0,
        "meta_classification_type": "U",
        "meta_norad_cat_id": 42992,
        "meta_element_set_no": 999,
        "meta_rev_at_epoch": 45346,
        "meta_bstar": 0.00052032995,
        "meta_mean_motion_dot": 0.00015733,
        "meta_mean_motion_ddot": 0,
        "tle_line1": "1 42992U 17068F   25344.80742867  .00015733  00000+0  52033-3 0  9992",
        "tle_line2": "2 42992  97.4320 116.2821 0005203  87.6350 272.5487 15.31421840453469"
      },
      "geometry": {
        "type": "Point",
        "coordinates": [
          123.02788329117521,
          -39.13827790172242
        ]
      }
    },
    {
      "type": "Feature",
      "properties": {
        "norad_id": 43111,
        "name": "CARTOSAT-2F",
        "group": "resource",
        "lat": 55.76887552775042,
        "lon": -125.82810994809157,
        "alt_km": 502.24573840347057,
        "timestamp": "2025-12-11T10:53:15.542544+00:00",
        "meta_object_name": "CARTOSAT-2F",
        "meta_object_id": "2018-004A",
        "meta_epoch": "2025-12-11T04:01:23.601792",
        "meta_mean_motion": 15.19251105,
        "meta_eccentricity": 8.86e-05,
        "meta_inclination": 97.4316,
        "meta_ra_of_asc_node": 42.8301,
        "meta_arg_of_pericenter": 147.7114,
        "meta_mean_anomaly": 212.4175,
        "meta_ephemeris_type": 0,
        "meta_classification_type": "U",
        "meta_norad_cat_id": 43111,
        "meta_element_set_no": 999,
        "meta_rev_at_epoch": 43878,
        "meta_bstar": 0.00045299,
        "meta_mean_motion_dot": 9.485e-05,
        "meta_mean_motion_ddot": 0,
        "tle_line1": "1 43111U 18004A   25345.16763428  .00009485  00000+0  45299-3 0  9996",
        "tle_line2": "2 43111  97.4316  42.8301 0000886 147.7114 212.4175 15.19251105438789"
      },
      "geometry": {
        "type": "Point",
        "coordinates": [
          -125.82810994809157,
          55.76887552775042
        ]
      }
    },
    {
      "type": "Feature",
      "properties": {
        "norad_id": 43259,
        "name": "GAOFEN-1 02",
        "group": "resource",
        "lat": 81.61593118193468,
        "lon": -31.322672619126923,
        "alt_km": 633.683477994683,
        "timestamp": "2025-12-11T10:53:15.542556+00:00",
        "meta_object_name": "GAOFEN-1 02",
        "meta_object_id": "2018-031A",
        "meta_epoch": "2025-12-11T03:59:08.118816",
        "meta_mean_motion": 14.7647355,
        "meta_eccentricity": 0.0001535,
        "meta_inclination": 98.0804,
        "meta_ra_of_asc_node": 42.9546,
        "meta_arg_of_pericenter": 216.7673,
        "meta_mean_anomaly": 143.3431,
        "meta_ephemeris_type": 0,
        "meta_classification_type": "U",
        "meta_norad_cat_id": 43259,
        "meta_element_set_no": 999,
        "meta_rev_at_epoch": 41495,
        "meta_bstar": 0.00015538,
        "meta_mean_motion_dot": 1.03e-05,
        "meta_mean_motion_ddot": 0,
        "tle_line1": "1 43259U 18031A   25345.16606619  .00001030  00000+0  15538-3 0  9998",
        "tle_line2": "2 43259  98.0804  42.9546 0001535 216.7673 143.3431 14.76473550414954"
      },
      "geometry": {
        "type": "Point",
        "coordinates": [
          -31.322672619126923,
          81.61593118193468
        ]
      }
    }
  ]
}